{
  "type": "FeatureCollection",
  "features": [
    {
      "type": "Feature",
      "properties": {
        "norad_id": 31952,
        "name": "FENGYUN 1C DEB",
        "group": "fengyun-1c-debris",
        "lat": 37.660933212655124,
        "lon": 109.13963330611017,
        "alt_km": 773.6241910543358,
        "timestamp": "2025-12-24T05:51:19.893836+00:00",
        "meta_object_name": "FENGYUN 1C DEB",
        "meta_object_id": "1999-025CND",
        "meta_epoch": "2025-12-21T06:38:16.029024",
        "meta_mean_motion": 14.53528655,
        "meta_eccentricity": 0.0114099,
        "meta_inclination": 98.9556,
        "meta_ra_of_asc_node": 112.9598,
        "meta_arg_of_pericenter": 266.5142,
        "meta_mean_anomaly": 92.2996,
        "meta_ephemeris_type": 0,
        "meta_classification_type": "U",
        "meta_norad_cat_id": 31952,
        "meta_element_set_no": 999,
        "meta_rev_at_epoch": 97333,
        "meta_bstar": 0.00040334,
        "meta_mean_motion_dot": 1.775e-05,
        "meta_mean_motion_ddot": 0,
        "tle_line1": "1 31952U 99025CND 25355.27657441  .00001775  00000+0  40334-3 0  9997",
        "tle_line2": "2 31952  98.9556 112.9598 0114099 266.5142  92.2996 14.53528655973335"
      },
      "geometry": {
        "type": "Point",
        "coordinates": [
          109.13963330611017,
          37.660933212655124
        ]
      }
    },
    {
      "type": "Feature",
      "properties": {
        "norad_id": 31955,
        "name": "FENGYUN 1C DEB",
        "group": "fengyun-1c-debris",
        "lat": 27.406468879407864,
        "lon": 61.36232214276749,
        "alt_km": 648.3736947616871,
        "timestamp": "2025-12-24T05:51:19.893846+00:00",
        "meta_object_name": "FENGYUN 1C DEB",
        "meta_object_id": "1999-025CNG",
        "meta_epoch": "2025-12-21T21:41:07.179648",
        "meta_mean_motion": 14.64028697,
        "meta_eccentricity": 0.00435771,
        "meta_inclination": 99.2807,
        "meta_ra_of_asc_node": 233.8648,
        "meta_arg_of_pericenter": 152.6411,
        "meta_mean_anomaly": 271.1392,
        "meta_ephemeris_type": 0,
        "meta_classification_type": "U",
        "meta_norad_cat_id": 31955,
        "meta_element_set_no": 999,
        "meta_rev_at_epoch": 96691,
        "meta_bstar": 0.0014947189,
        "meta_mean_motion_dot": 7.894e-05,
        "meta_mean_motion_ddot": 0,
        "tle_line1": "1 31955U 99025CNG 25355.90355532  .00007894  00000+0  14947-2 0  9994",
        "tle_line2": "2 31955  99.2807 233.8648 0043577 152.6411 271.1392 14.64028697966913"
      },
      "geometry": {
        "type": "Point",
        "coordinates": [
          61.36232214276749,
          27.406468879407864
        ]
      }
    },
    {
      "type": "Feature",
      "properties": {
        "norad_id": 31959,
        "name": "FENGYUN 1C DEB",
        "group": "fengyun-1c-debris",
        "lat": -30.960835891211307,
        "lon": 44.15309743653574,
        "alt_km": 742.1778366281478,
        "timestamp": "2025-12-24T05:51:19.893856+00:00",
        "meta_object_name": "FENGYUN 1C DEB",
        "meta_object_id": "1999-025CNL",
        "meta_epoch": "2025-12-21T22:06:57.352032",
        "meta_mean_motion": 14.46896532,
        "meta_eccentricity": 0.00273534,
        "meta_inclination": 98.5099,
        "meta_ra_of_asc_node": 226.9733,
        "meta_arg_of_pericenter": 126.577,
        "meta_mean_anomaly": 233.7945,
        "meta_ephemeris_type": 0,
        "meta_classification_type": "U",
        "meta_norad_cat_id": 31959,
        "meta_element_set_no": 999,
        "meta_rev_at_epoch": 64486,
        "meta_bstar": 0.0023827795,
        "meta_mean_motion_dot": 8.652e-05,
        "meta_mean_motion_ddot": 0,
        "tle_line1": "1 31959U 99025CNL 25355.92149713  .00008652  00000+0  23828-2 0  9993",
        "tle_line2": "2 31959  98.5099 226.9733 0027353 126.5770 233.7945 14.46896532644868"
      },
      "geometry": {
        "type": "Point",
        "coordinates": [
          44.15309743653574,
          -30.960835891211307
        ]
      }
    },
    {
      "type": "Feature",
      "properties": {
        "norad_id": 31964,
        "name": "FENGYUN 1C DEB",
        "group": "fengyun-1c-debris",
        "lat": 59.90827963548828,
        "lon": -42.26178207856044,
        "alt_km": 702.9179030891237,
        "timestamp": "2025-12-24T05:51:19.893866+00:00",
        "meta_object_name": "FENGYUN 1C DEB",
        "meta_object_id": "1999-025CNR",
        "meta_epoch": "2025-12-23T02:58:25.746240",
        "meta_mean_motion": 14.58706281,
        "meta_eccentricity": 0.00284078,
        "meta_inclination": 98.7007,
        "meta_ra_of_asc_node": 121.2429,
        "meta_arg_of_pericenter": 357.3424,
        "meta_mean_anomaly": 2.7619,
        "meta_ephemeris_type": 0,
        "meta_classification_type": "U",
        "meta_norad_cat_id": 31964,
        "meta_element_set_no": 999,
        "meta_rev_at_epoch": 67661,
        "meta_bstar": 0.0025118016,
        "meta_mean_motion_dot": 0.0001175,
        "meta_mean_motion_ddot": 0,
        "tle_line1": "1 31964U 99025CNR 25357.12390910  .00011750  00000+0  25118-2 0  9997",
        "tle_line2": "2 31964  98.7007 121.2429 0028407 357.3424   2.7619 14.58706281676619"
      },
      "geometry": {
        "type": "Point",
        "coordinates": [
          -42.26178207856044,
          59.90827963548828
        ]
      }
    },
    {
      "type": "Feature",
      "properties": {
        "norad_id": 31966,
        "name": "FENGYUN 1C DEB",
        "group": "fengyun-1c-debris",
        "lat": 69.22675805786358,
        "lon": -3.256841363659817,
        "alt_km": 700.6838789736794,
        "timestamp": "2025-12-24T05:51:19.893876+00:00",
        "meta_object_name": "FENGYUN 1C DEB",
        "meta_object_id": "1999-025CNT",
        "meta_epoch": "2025-12-23T16:15:54.267552",
        "meta_mean_motion": 14.67691457,
        "meta_eccentricity": 0.00860429,
        "meta_inclination": 99.0173,
        "meta_ra_of_asc_node": 151.3719,
        "meta_arg_of_pericenter": 240.9283,
        "meta_mean_anomaly": 118.3281,
        "meta_ephemeris_type": 0,
        "meta_classification_type": "U",
        "meta_norad_cat_id": 31966,
        "meta_element_set_no": 999,
        "meta_rev_at_epoch": 65903,
        "meta_bstar": 0.0013602049,
        "meta_mean_motion_dot": 8.13e-05,
        "meta_mean_motion_ddot": 0,
        "tle_line1": "1 31966U 99025CNT 25357.67771143  .00008130  00000+0  13602-2 0  9993",
        "tle_line2": "2 31966  99.0173 151.3719 0086042 240.9283 118.3281 14.67691457659038"
      },
      "geometry": {
        "type": "Point",
        "coordinates": [
          -3.256841363659817,
          69.22675805786358
        ]
      }
    },
    {
      "type": "Feature",
      "properties": {
        "norad_id": 31972,
        "name": "FENGYUN 1C DEB",
        "group": "fengyun-1c-debris",
        "lat": -4.549172985285763,
        "lon": -140.62612769640273,
        "alt_km": 926.6111771112037,
        "timestamp": "2025-12-24T05:51:19.893886+00:00",
        "meta_object_name": "FENGYUN 1C DEB",
        "meta_object_id": "1999-025CNZ",
        "meta_epoch": "2025-12-22T02:03:55.063872",
        "meta_mean_motion": 14.07518261,
        "meta_eccentricity": 0.00765265,
        "meta_inclination": 99.2103,
        "meta_ra_of_asc_node": 37.9145,
        "meta_arg_of_pericenter": 5.9214,
        "meta_mean_anomaly": 50.28,
        "meta_ephemeris_type": 0,
        "meta_classification_type": "U",
        "meta_norad_cat_id": 31972,
        "meta_element_set_no": 999,
        "meta_rev_at_epoch": 95092,
        "meta_bstar": 0.00013990636,
        "meta_mean_motion_dot": 1.96e-06,
        "meta_mean_motion_ddot": 0,
        "tle_line1": "1 31972U 99025CNZ 25356.08605398  .00000196  00000+0  13991-3 0  9998",
        "tle_line2": "2 31972  99.2103  37.9145 0076526   5.9214  50.2800 14.07518261950929"
      },
      "geometry": {
        "type": "Point",
        "coordinates": [
          -140.62612769640273,
          -4.549172985285763
        ]
      }
    },
    {
      "type": "Feature",
      "properties": {
        "norad_id": 31974,
        "name": "FENGYUN 1C DEB",
        "group": "fengyun-1c-debris",
        "lat": 52.937545756037935,
        "lon": -159.81225060400268,
        "alt_km": 828.3123029267781,
        "timestamp": "2025-12-24T05:51:19.893896+00:00",
        "meta_object_name": "FENGYUN 1C DEB",
        "meta_object_id": "1999-025CPB",
        "meta_epoch": "2025-12-21T23:30:37.969632",
        "meta_mean_motion": 14.2962599,
        "meta_eccentricity": 0.00713676,
        "meta_inclination": 98.3789,
        "meta_ra_of_asc_node": 6.7561,
        "meta_arg_of_pericenter": 275.2464,
        "meta_mean_anomaly": 84.0578,
        "meta_ephemeris_type": 0,
        "meta_classification_type": "U",
        "meta_norad_cat_id": 31974,
        "meta_element_set_no": 999,
        "meta_rev_at_epoch": 69554,
        "meta_bstar": 0.0022399521,
        "meta_mean_motion_dot": 5.858e-05,
        "meta_mean_motion_ddot": 0,
        "tle_line1": "1 31974U 99025CPB 25355.97960613  .00005858  00000+0  22400-2 0  9995",
        "tle_line2": "2 31974  98.3789   6.7561 0071367 275.2464  84.0578 14.29625990695547"
      },
      "geometry": {
        "type": "Point",
        "coordinates": [
          -159.81225060400268,
          52.937545756037935
        ]
      }
    }
  ]
}